CELESTIS-17 & SHERPA-FX1
1 47486U 21006CB  26068.64311433  .00007207  00000+0  24301-3 0  9993
2 47486  97.2397 112.1052 0006630 178.1385 181.9882 15.30994801284065
STARLINK-32689          
1 62440U 24251J   26068.88900707  .00024327  00000+0  83064-3 0  9992
2 62440  53.1590 334.0448 0001024  97.3363 262.7754 15.30206137 67986
